SL-4 R/B                
1 39679U 14021B   26058.62888718  .00015888  00000+0  35380-3 0  9992
2 39679  51.6076  26.3449 0098338  66.2855 294.8408 15.38791390654727
ALOS-2                  
1 39766U 14029A   26058.70921602  .00003042  00000+0  41414-3 0  9990
2 39766  97.9198 157.4511 0001526  97.1494 262.9891 14.79460384635397
YAOGAN-29               
1 41038U 15069A   26058.74108731 -.00000152  00000+0 -12107-4 0  9993
2 41038  98.0164  87.1438 0002439  52.4533 307.6901 14.82979905554405
ASTRO-H (HITOMI)        
1 41337U 16012A   26058.32178364  .00003628  00000+0  21247-3 0  9990
2 41337  31.0000  63.4486 0010002 228.2217 131.7566 15.09916600550660
HXMT (HUIYAN)           
1 42758U 17034A   26058.50879840  .00006230  00000+0  31459-3 0  9998
2 42758  43.0147  73.2677 0031651 172.7053 187.4261 15.17311557480995
CZ-2C R/B               
1 43521U 18054D   26058.27366140  .03081772  14445-5  79871-3 0  9999
2 43521  35.1213  10.5720 0009236 221.7577 138.2468 16.27406629427231
SAOCOM 1A               
1 43641U 18076A   26058.76896328  .00000765  00000+0  10269-3 0  9998
2 43641  97.8891 247.0815 0001342  80.8757 279.2608 14.82157556399890
H-2A R/B                
1 43682U 18084L   26058.53890965  .00018925  00000+0  45792-3 0  9994
2 43682  98.8749 273.7609 0026115  59.5519 300.8297 15.40844580404212
SAOCOM 1B               
1 46265U 20059A   26058.80019807  .00000716  00000+0  96452-4 0  9996
2 46265  97.8887 246.2100 0001461  84.4816 275.6564 14.82159870297288
CSS (TIANHE)            
1 48274U 21035A   26058.66722720  .00021477  00000+0  25948-3 0  9990
2 48274  41.4656 269.1240 0006216 208.9469 151.1026 15.60189506276046
COSMOS 2550             
1 48865U 21056A   26058.41015583 -.00000181  00000+0  33050-6 0  9990
2 48865  67.1419  72.0263 0008372 269.3666  90.6529 15.33831842261883
CZ-2C R/B               
1 52794U 22058K   26058.28709604  .00033480  00000+0  50411-3 0  9992
2 52794  50.1896  11.7662 0042147 156.4537 203.8374 15.53421334208514
