CCSDS_OMM_VERS = 2.0
CREATION_DATE  = 
ORIGINATOR     = 

OBJECT_NAME    = SL-4 R/B
OBJECT_ID      = 2014-021B
CENTER_NAME    = EARTH
REF_FRAME      = TEME
TIME_SYSTEM    = UTC
MEAN_ELEMENT_THEORY = SGP/SGP4

EPOCH          = 2026-02-27T15:05:35.852352
MEAN_MOTION    = 15.38791390
ECCENTRICITY   = .0098338
INCLINATION    = 51.6076
RA_OF_ASC_NODE = 26.3449
ARG_OF_PERICENTER = 66.2855
MEAN_ANOMALY   = 294.8408

EPHEMERIS_TYPE = 0
CLASSIFICATION_TYPE = U
NORAD_CAT_ID   = 39679
ELEMENT_SET_NO = 999
REV_AT_EPOCH   = 65472
BSTAR          = .3538E-3
MEAN_MOTION_DOT = .15888E-3
MEAN_MOTION_DDOT = 0

CCSDS_OMM_VERS = 2.0
CREATION_DATE  = 
ORIGINATOR     = 

OBJECT_NAME    = ALOS-2
OBJECT_ID      = 2014-029A
CENTER_NAME    = EARTH
REF_FRAME      = TEME
TIME_SYSTEM    = UTC
MEAN_ELEMENT_THEORY = SGP/SGP4

EPOCH          = 2026-02-27T17:01:16.264128
MEAN_MOTION    = 14.79460384
ECCENTRICITY   = .0001526
INCLINATION    = 97.9198
RA_OF_ASC_NODE = 157.4511
ARG_OF_PERICENTER = 97.1494
MEAN_ANOMALY   = 262.9891

EPHEMERIS_TYPE = 0
CLASSIFICATION_TYPE = U
NORAD_CAT_ID   = 39766
ELEMENT_SET_NO = 999
REV_AT_EPOCH   = 63539
BSTAR          = .41414E-3
MEAN_MOTION_DOT = .3042E-4
MEAN_MOTION_DDOT = 0

CCSDS_OMM_VERS = 2.0
CREATION_DATE  = 
ORIGINATOR     = 

OBJECT_NAME    = YAOGAN-29
OBJECT_ID      = 2015-069A
CENTER_NAME    = EARTH
REF_FRAME      = TEME
TIME_SYSTEM    = UTC
MEAN_ELEMENT_THEORY = SGP/SGP4

EPOCH          = 2026-02-27T17:47:09.943584
MEAN_MOTION    = 14.82979905
ECCENTRICITY   = .0002439
INCLINATION    = 98.0164
RA_OF_ASC_NODE = 87.1438
ARG_OF_PERICENTER = 52.4533
MEAN_ANOMALY   = 307.6901

EPHEMERIS_TYPE = 0
CLASSIFICATION_TYPE = U
NORAD_CAT_ID   = 41038
ELEMENT_SET_NO = 999
REV_AT_EPOCH   = 55440
BSTAR          = -.12107E-4
MEAN_MOTION_DOT = -.152E-5
MEAN_MOTION_DDOT = 0

CCSDS_OMM_VERS = 2.0
CREATION_DATE  = 
ORIGINATOR     = 

OBJECT_NAME    = ASTRO-H (HITOMI)
OBJECT_ID      = 2016-012A
CENTER_NAME    = EARTH
REF_FRAME      = TEME
TIME_SYSTEM    = UTC
MEAN_ELEMENT_THEORY = SGP/SGP4

EPOCH          = 2026-02-27T07:43:22.106496
MEAN_MOTION    = 15.09916600
ECCENTRICITY   = .0010002
INCLINATION    = 31.0000
RA_OF_ASC_NODE = 63.4486
ARG_OF_PERICENTER = 228.2217
MEAN_ANOMALY   = 131.7566

EPHEMERIS_TYPE = 0
CLASSIFICATION_TYPE = U
NORAD_CAT_ID   = 41337
ELEMENT_SET_NO = 999
REV_AT_EPOCH   = 55066
BSTAR          = .21247E-3
MEAN_MOTION_DOT = .3628E-4
MEAN_MOTION_DDOT = 0

CCSDS_OMM_VERS = 2.0
CREATION_DATE  = 
ORIGINATOR     = 

OBJECT_NAME    = HXMT (HUIYAN)
OBJECT_ID      = 2017-034A
CENTER_NAME    = EARTH
REF_FRAME      = TEME
TIME_SYSTEM    = UTC
MEAN_ELEMENT_THEORY = SGP/SGP4

EPOCH          = 2026-02-27T12:12:40.181760
MEAN_MOTION    = 15.17311557
ECCENTRICITY   = .0031651
INCLINATION    = 43.0147
RA_OF_ASC_NODE = 73.2677
ARG_OF_PERICENTER = 172.7053
MEAN_ANOMALY   = 187.4261

EPHEMERIS_TYPE = 0
CLASSIFICATION_TYPE = U
NORAD_CAT_ID   = 42758
ELEMENT_SET_NO = 999
REV_AT_EPOCH   = 48099
BSTAR          = .31459E-3
MEAN_MOTION_DOT = .623E-4
MEAN_MOTION_DDOT = 0

CCSDS_OMM_VERS = 2.0
CREATION_DATE  = 
ORIGINATOR     = 

OBJECT_NAME    = CZ-2C R/B
OBJECT_ID      = 2018-054D
CENTER_NAME    = EARTH
REF_FRAME      = TEME
TIME_SYSTEM    = UTC
MEAN_ELEMENT_THEORY = SGP/SGP4

EPOCH          = 2026-02-27T06:34:04.344960
MEAN_MOTION    = 16.27406629
ECCENTRICITY   = .0009236
INCLINATION    = 35.1213
RA_OF_ASC_NODE = 10.5720
ARG_OF_PERICENTER = 221.7577
MEAN_ANOMALY   = 138.2468

EPHEMERIS_TYPE = 0
CLASSIFICATION_TYPE = U
NORAD_CAT_ID   = 43521
ELEMENT_SET_NO = 999
REV_AT_EPOCH   = 42723
BSTAR          = .79871E-3
MEAN_MOTION_DOT = .3081772E-1
MEAN_MOTION_DDOT = .14445E-5

CCSDS_OMM_VERS = 2.0
CREATION_DATE  = 
ORIGINATOR     = 

OBJECT_NAME    = SAOCOM 1A
OBJECT_ID      = 2018-076A
CENTER_NAME    = EARTH
REF_FRAME      = TEME
TIME_SYSTEM    = UTC
MEAN_ELEMENT_THEORY = SGP/SGP4

EPOCH          = 2026-02-27T18:27:18.427392
MEAN_MOTION    = 14.82157556
ECCENTRICITY   = .0001342
INCLINATION    = 97.8891
RA_OF_ASC_NODE = 247.0815
ARG_OF_PERICENTER = 80.8757
MEAN_ANOMALY   = 279.2608

EPHEMERIS_TYPE = 0
CLASSIFICATION_TYPE = U
NORAD_CAT_ID   = 43641
ELEMENT_SET_NO = 999
REV_AT_EPOCH   = 39989
BSTAR          = .10269E-3
MEAN_MOTION_DOT = .765E-5
MEAN_MOTION_DDOT = 0

CCSDS_OMM_VERS = 2.0
CREATION_DATE  = 
ORIGINATOR     = 

OBJECT_NAME    = H-2A R/B
OBJECT_ID      = 2018-084L
CENTER_NAME    = EARTH
REF_FRAME      = TEME
TIME_SYSTEM    = UTC
MEAN_ELEMENT_THEORY = SGP/SGP4

EPOCH          = 2026-02-27T12:56:01.793760
MEAN_MOTION    = 15.40844580
ECCENTRICITY   = .0026115
INCLINATION    = 98.8749
RA_OF_ASC_NODE = 273.7609
ARG_OF_PERICENTER = 59.5519
MEAN_ANOMALY   = 300.8297

EPHEMERIS_TYPE = 0
CLASSIFICATION_TYPE = U
NORAD_CAT_ID   = 43682
ELEMENT_SET_NO = 999
REV_AT_EPOCH   = 40421
BSTAR          = .45792E-3
MEAN_MOTION_DOT = .18925E-3
MEAN_MOTION_DDOT = 0

CCSDS_OMM_VERS = 2.0
CREATION_DATE  = 
ORIGINATOR     = 

OBJECT_NAME    = SAOCOM 1B
OBJECT_ID      = 2020-059A
CENTER_NAME    = EARTH
REF_FRAME      = TEME
TIME_SYSTEM    = UTC
MEAN_ELEMENT_THEORY = SGP/SGP4

EPOCH          = 2026-02-27T19:12:17.113248
MEAN_MOTION    = 14.82159870
ECCENTRICITY   = .0001461
INCLINATION    = 97.8887
RA_OF_ASC_NODE = 246.2100
ARG_OF_PERICENTER = 84.4816
MEAN_ANOMALY   = 275.6564

EPHEMERIS_TYPE = 0
CLASSIFICATION_TYPE = U
NORAD_CAT_ID   = 46265
ELEMENT_SET_NO = 999
REV_AT_EPOCH   = 29728
BSTAR          = .96452E-4
MEAN_MOTION_DOT = .716E-5
MEAN_MOTION_DDOT = 0

CCSDS_OMM_VERS = 2.0
CREATION_DATE  = 
ORIGINATOR     = 

OBJECT_NAME    = CSS (TIANHE)
OBJECT_ID      = 2021-035A
CENTER_NAME    = EARTH
REF_FRAME      = TEME
TIME_SYSTEM    = UTC
MEAN_ELEMENT_THEORY = SGP/SGP4

EPOCH          = 2026-02-27T16:00:48.430080
MEAN_MOTION    = 15.60189506
ECCENTRICITY   = .0006216
INCLINATION    = 41.4656
RA_OF_ASC_NODE = 269.1240
ARG_OF_PERICENTER = 208.9469
MEAN_ANOMALY   = 151.1026

EPHEMERIS_TYPE = 0
CLASSIFICATION_TYPE = U
NORAD_CAT_ID   = 48274
ELEMENT_SET_NO = 999
REV_AT_EPOCH   = 27604
BSTAR          = .25948E-3
MEAN_MOTION_DOT = .21477E-3
MEAN_MOTION_DDOT = 0

CCSDS_OMM_VERS = 2.0
CREATION_DATE  = 
ORIGINATOR     = 

OBJECT_NAME    = COSMOS 2550
OBJECT_ID      = 2021-056A
CENTER_NAME    = EARTH
REF_FRAME      = TEME
TIME_SYSTEM    = UTC
MEAN_ELEMENT_THEORY = SGP/SGP4

EPOCH          = 2026-02-27T09:50:37.463712
MEAN_MOTION    = 15.33831842
ECCENTRICITY   = .0008372
INCLINATION    = 67.1419
RA_OF_ASC_NODE = 72.0263
ARG_OF_PERICENTER = 269.3666
MEAN_ANOMALY   = 90.6529

EPHEMERIS_TYPE = 0
CLASSIFICATION_TYPE = U
NORAD_CAT_ID   = 48865
ELEMENT_SET_NO = 999
REV_AT_EPOCH   = 26188
BSTAR          = .3305E-6
MEAN_MOTION_DOT = -.181E-5
MEAN_MOTION_DDOT = 0

CCSDS_OMM_VERS = 2.0
CREATION_DATE  = 
ORIGINATOR     = 

OBJECT_NAME    = CZ-2C R/B
OBJECT_ID      = 2022-058K
CENTER_NAME    = EARTH
REF_FRAME      = TEME
TIME_SYSTEM    = UTC
MEAN_ELEMENT_THEORY = SGP/SGP4

EPOCH          = 2026-02-27T06:53:25.097856
MEAN_MOTION    = 15.53421334
ECCENTRICITY   = .0042147
INCLINATION    = 50.1896
RA_OF_ASC_NODE = 11.7662
ARG_OF_PERICENTER = 156.4537
MEAN_ANOMALY   = 203.8374

EPHEMERIS_TYPE = 0
CLASSIFICATION_TYPE = U
NORAD_CAT_ID   = 52794
ELEMENT_SET_NO = 999
REV_AT_EPOCH   = 20851
BSTAR          = .50411E-3
MEAN_MOTION_DOT = .3348E-3
MEAN_MOTION_DDOT = 0

